{
  "type": "FeatureCollection",
  "features": [
    {
      "type": "Feature",
      "properties": {
        "norad_id": 43208,
        "name": "BEIDOU-3 M3 (C21)",
        "group": "beidou",
        "lat": -24.438321987995526,
        "lon": -92.93491613813468,
        "alt_km": 21536.73858395319,
        "timestamp": "2025-12-05T04:52:15.558554+00:00",
        "meta_object_name": "BEIDOU-3 M3 (C21)",
        "meta_object_id": "2018-018B",
        "meta_epoch": "2025-12-03T06:41:57.693408",
        "meta_mean_motion": 1.86230862,
        "meta_eccentricity": 0.0006282,
        "meta_inclination": 56.4772,
        "meta_ra_of_asc_node": 69.6218,
        "meta_arg_of_pericenter": 317.5873,
        "meta_mean_anomaly": 42.3668,
        "meta_ephemeris_type": 0,
        "meta_classification_type": "U",
        "meta_norad_cat_id": 43208,
        "meta_element_set_no": 999,
        "meta_rev_at_epoch": 5309,
        "meta_bstar": 0,
        "meta_mean_motion_dot": -4.9e-07,
        "meta_mean_motion_ddot": 0,
        "tle_line1": "1 43208U 18018B   25337.27913997 -.00000049  00000+0  00000+0 0  9994",
        "tle_line2": "2 43208  56.4772  69.6218 0006282 317.5873  42.3668  1.86230862 53096"
      },
      "geometry": {
        "type": "Point",
        "coordinates": [
          -92.93491613813468,
          -24.438321987995526
        ]
      }
    },
    {
      "type": "Feature",
      "properties": {
        "norad_id": 43245,
        "name": "BEIDOU-3 M9 (C29)",
        "group": "beidou",
        "lat": 47.41449758780534,
        "lon": -2.0485711772178057,
        "alt_km": 21527.14932835423,
        "timestamp": "2025-12-05T04:52:15.558564+00:00",
        "meta_object_name": "BEIDOU-3 M9 (C29)",
        "meta_object_id": "2018-029A",
        "meta_epoch": "2025-12-01T08:20:14.784576",
        "meta_mean_motion": 1.86227904,
        "meta_eccentricity": 0.00017985,
        "meta_inclination": 54.3765,
        "meta_ra_of_asc_node": 306.8658,
        "meta_arg_of_pericenter": 272.1738,
        "meta_mean_anomaly": 87.7976,
        "meta_ephemeris_type": 0,
        "meta_classification_type": "U",
        "meta_norad_cat_id": 43245,
        "meta_element_set_no": 999,
        "meta_rev_at_epoch": 5221,
        "meta_bstar": 0,
        "meta_mean_motion_dot": -5.8e-07,
        "meta_mean_motion_ddot": 0,
        "tle_line1": "1 43245U 18029A   25335.34739334 -.00000058  00000+0  00000+0 0  9994",
        "tle_line2": "2 43245  54.3765 306.8658 0001798 272.1738  87.7976  1.86227904 52214"
      },
      "geometry": {
        "type": "Point",
        "coordinates": [
          -2.0485711772178057,
          47.41449758780534
        ]
      }
    },
    {
      "type": "Feature",
      "properties": {
        "norad_id": 43246,
        "name": "BEIDOU-3 M10 (C30)",
        "group": "beidou",
        "lat": 50.467337125434916,
        "lon": 66.44780881436854,
        "alt_km": 21525.905143884087,
        "timestamp": "2025-12-05T04:52:15.558574+00:00",
        "meta_object_name": "BEIDOU-3 M10 (C30)",
        "meta_object_id": "2018-029B",
        "meta_epoch": "2025-12-02T08:33:31.669920",
        "meta_mean_motion": 1.86228858,
        "meta_eccentricity": 0.00039642,
        "meta_inclination": 54.3728,
        "meta_ra_of_asc_node": 306.8573,
        "meta_arg_of_pericenter": 359.3093,
        "meta_mean_anomaly": 0.678,
        "meta_ephemeris_type": 0,
        "meta_classification_type": "U",
        "meta_norad_cat_id": 43246,
        "meta_element_set_no": 999,
        "meta_rev_at_epoch": 5221,
        "meta_bstar": 0,
        "meta_mean_motion_dot": -6.2e-07,
        "meta_mean_motion_ddot": 0,
        "tle_line1": "1 43246U 18029B   25336.35661655 -.00000062  00000+0  00000+0 0  9992",
        "tle_line2": "2 43246  54.3728 306.8573 0003964 359.3093   0.6780  1.86228858 52215"
      },
      "geometry": {
        "type": "Point",
        "coordinates": [
          66.44780881436854,
          50.467337125434916
        ]
      }
    },
    {
      "type": "Feature",
      "properties": {
        "norad_id": 43539,
        "name": "BEIDOU-2 IGSO-7 (C16)",
        "group": "beidou",
        "lat": 54.9764353657494,
        "lon": -99.62734014828595,
        "alt_km": 36090.15363729051,
        "timestamp": "2025-12-05T04:52:15.558585+00:00",
        "meta_object_name": "BEIDOU-2 IGSO-7 (C16)",
        "meta_object_id": "2018-057A",
        "meta_epoch": "2025-12-04T10:49:25.352832",
        "meta_mean_motion": 1.00259277,
        "meta_eccentricity": 0.0092474,
        "meta_inclination": 55.1728,
        "meta_ra_of_asc_node": 164.7444,
        "meta_arg_of_pericenter": 235.1674,
        "meta_mean_anomaly": 307.3303,
        "meta_ephemeris_type": 0,
        "meta_classification_type": "U",
        "meta_norad_cat_id": 43539,
        "meta_element_set_no": 999,
        "meta_rev_at_epoch": 2717,
        "meta_bstar": 0,
        "meta_mean_motion_dot": -3.5e-07,
        "meta_mean_motion_ddot": 0,
        "tle_line1": "1 43539U 18057A   25338.45098788 -.00000035  00000+0  00000+0 0  9992",
        "tle_line2": "2 43539  55.1728 164.7444 0092474 235.1674 307.3303  1.00259277 27177"
      },
      "geometry": {
        "type": "Point",
        "coordinates": [
          -99.62734014828595,
          54.9764353657494
        ]
      }
    },
    {
      "type": "Feature",
      "properties": {
        "norad_id": 43581,
        "name": "BEIDOU-3 M5 (C23)",
        "group": "beidou",
        "lat": -33.079813194386496,
        "lon": 160.73706364147438,
        "alt_km": 21527.498453070686,
        "timestamp": "2025-12-05T04:52:15.558595+00:00",
        "meta_object_name": "BEIDOU-3 M5 (C23)",
        "meta_object_id": "2018-062A",
        "meta_epoch": "2025-12-04T04:36:50.793120",
        "meta_mean_motion": 1.86228551,
        "meta_eccentricity": 0.0002115,
        "meta_inclination": 54.0891,
        "meta_ra_of_asc_node": 188.9344,
        "meta_arg_of_pericenter": 351.3867,
        "meta_mean_anomaly": 8.7024,
        "meta_ephemeris_type": 0,
        "meta_classification_type": "U",
        "meta_norad_cat_id": 43581,
        "meta_element_set_no": 999,
        "meta_rev_at_epoch": 5000,
        "meta_bstar": 0,
        "meta_mean_motion_dot": 1.07e-06,
        "meta_mean_motion_ddot": 0,
        "tle_line1": "1 43581U 18062A   25338.19225455  .00000107  00000+0  00000+0 0  9998",
        "tle_line2": "2 43581  54.0891 188.9344 0002115 351.3867   8.7024  1.86228551 50003"
      },
      "geometry": {
        "type": "Point",
        "coordinates": [
          160.73706364147438,
          -33.079813194386496
        ]
      }
    },
    {
      "type": "Feature",
      "properties": {
        "norad_id": 43582,
        "name": "BEIDOU-3 M6 (C24)",
        "group": "beidou",
        "lat": 37.98884302518555,
        "lon": -136.6266549103021,
        "alt_km": 21502.07630718992,
        "timestamp": "2025-12-05T04:52:15.558605+00:00",
        "meta_object_name": "BEIDOU-3 M6 (C24)",
        "meta_object_id": "2018-062B",
        "meta_epoch": "2025-12-04T01:19:44.398272",
        "meta_mean_motion": 1.86229587,
        "meta_eccentricity": 0.0007695,
        "meta_inclination": 54.0887,
        "meta_ra_of_asc_node": 188.9281,
        "meta_arg_of_pericenter": 45.9534,
        "meta_mean_anomaly": 314.2033,
        "meta_ephemeris_type": 0,
        "meta_classification_type": "U",
        "meta_norad_cat_id": 43582,
        "meta_element_set_no": 999,
        "meta_rev_at_epoch": 5000,
        "meta_bstar": 0,
        "meta_mean_motion_dot": 1.09e-06,
        "meta_mean_motion_ddot": 0,
        "tle_line1": "1 43582U 18062B   25338.05537498  .00000109  00000+0  00000+0 0  9999",
        "tle_line2": "2 43582  54.0887 188.9281 0007695  45.9534 314.2033  1.86229587 50009"
      },
      "geometry": {
        "type": "Point",
        "coordinates": [
          -136.6266549103021,
          37.98884302518555
        ]
      }
    },
    {
      "type": "Feature",
      "properties": {
        "norad_id": 43602,
        "name": "BEIDOU-3 M12 (C26)",
        "group": "beidou",
        "lat": 54.137804985711874,
        "lon": -80.12763024992192,
        "alt_km": 21505.84778632458,
        "timestamp": "2025-12-05T04:52:15.558615+00:00",
        "meta_object_name": "BEIDOU-3 M12 (C26)",
        "meta_object_id": "2018-067A",
        "meta_epoch": "2025-12-03T23:50:04.646976",
        "meta_mean_motion": 1.86227631,
        "meta_eccentricity": 0.0009142,
        "meta_inclination": 54.1831,
        "meta_ra_of_asc_node": 187.6601,
        "meta_arg_of_pericenter": 40.5881,
        "meta_mean_anomaly": 319.5721,
        "meta_ephemeris_type": 0,
        "meta_classification_type": "U",
        "meta_norad_cat_id": 43602,
        "meta_element_set_no": 999,
        "meta_rev_at_epoch": 4948,
        "meta_bstar": 0,
        "meta_mean_motion_dot": 1.1e-06,
        "meta_mean_motion_ddot": 0,
        "tle_line1": "1 43602U 18067A   25337.99310934  .00000110  00000+0  00000+0 0  9995",
        "tle_line2": "2 43602  54.1831 187.6601 0009142  40.5881 319.5721  1.86227631 49489"
      },
      "geometry": {
        "type": "Point",
        "coordinates": [
          -80.12763024992192,
          54.137804985711874
        ]
      }
    }
  ]
}